QIANFAN-65              
1 62795U 25016L   25296.21857205  .00000077  00000+0  10031-3 0  9998
2 62795  88.9722 108.2854 0015315 125.5010 234.7572 13.50973066 40424
QIANFAN-66              
1 62796U 25016M   25296.17338884  .00000052  00000+0  62069-4 0  9993
2 62796  88.9748 108.2503 0016497 121.8345 238.4415 13.50977086 40463
QIANFAN-67              
1 62797U 25016N   25296.17742537  .00000067  00000+0  84249-4 0  9998
2 62797  88.9732 108.2803 0016349 128.1067 232.1561 13.50969821 40435
QIANFAN-68              
1 62798U 25016P   25296.16920910  .00000056  00000+0  67103-4 0  9999
2 62798  88.9736 108.3245 0016445 126.5270 233.7398 13.50972156 40414
QIANFAN-69              
1 62799U 25016Q   25296.18571716  .00000057  00000+0  69013-4 0  9991
2 62799  88.9718 108.2031 0017176 127.6281 232.6432 13.50969573 40453
QIANFAN-70              
1 62800U 25016R   25296.20202318  .00000082  00000+0  10784-3 0  9994
2 62800  88.9736 108.3292 0016911 118.6465 241.6389 13.50972200 40414
QIANFAN-71              
1 62801U 25016S   25296.19799932  .00000058  00000+0  71330-4 0  9994
2 62801  88.9733 108.3122 0017029 130.8180 229.4451 13.50973324 40417
QIANFAN-72              
1 62802U 25016T   25296.21446453  .00000074  00000+0  95041-4 0  9998
2 62802  88.9720 108.3288 0020145 138.1789 222.0906 13.50973018 40409
